{
  "type": "FeatureCollection",
  "features": [
    {
      "type": "Feature",
      "properties": {
        "norad_id": 39773,
        "name": "EUTELSAT 3B",
        "group": "eutelsat",
        "lat": 0.05982903068030788,
        "lon": 41.113834572727754,
        "alt_km": 35806.24018190781,
        "timestamp": "2025-12-04T21:36:15.545867+00:00",
        "meta_object_name": "EUTELSAT 3B",
        "meta_object_id": "2014-030A",
        "meta_epoch": "2025-12-04T13:44:27.028320",
        "meta_mean_motion": 1.00271062,
        "meta_eccentricity": 0.00047717,
        "meta_inclination": 0.0634,
        "meta_ra_of_asc_node": 5.1533,
        "meta_arg_of_pericenter": 224.1164,
        "meta_mean_anomaly": 53.5813,
        "meta_ephemeris_type": 0,
        "meta_classification_type": "U",
        "meta_norad_cat_id": 39773,
        "meta_element_set_no": 999,
        "meta_rev_at_epoch": 4211,
        "meta_bstar": 0,
        "meta_mean_motion_dot": 3.4e-07,
        "meta_mean_motion_ddot": 0,
        "tle_line1": "1 39773U 14030A   25338.57253505  .00000034  00000+0  00000+0 0  9995",
        "tle_line2": "2 39773   0.0634   5.1533 0004771 224.1164  53.5813  1.00271062 42112"
      },
      "geometry": {
        "type": "Point",
        "coordinates": [
          41.113834572727754,
          0.05982903068030788
        ]
      }
    },
    {
      "type": "Feature",
      "properties": {
        "norad_id": 40425,
        "name": "EUTELSAT 115 WEST B",
        "group": "eutelsat",
        "lat": 0.0073599948835604435,
        "lon": -76.8644923652134,
        "alt_km": 35786.154278060574,
        "timestamp": "2025-12-04T21:36:15.545879+00:00",
        "meta_object_name": "EUTELSAT 115 WEST B",
        "meta_object_id": "2015-010B",
        "meta_epoch": "2025-12-04T13:10:52.743648",
        "meta_mean_motion": 1.00275299,
        "meta_eccentricity": 4.036e-05,
        "meta_inclination": 0.0149,
        "meta_ra_of_asc_node": 139.4558,
        "meta_arg_of_pericenter": 272.1995,
        "meta_mean_anomaly": 104.8079,
        "meta_ephemeris_type": 0,
        "meta_classification_type": "U",
        "meta_norad_cat_id": 40425,
        "meta_element_set_no": 999,
        "meta_rev_at_epoch": 3944,
        "meta_bstar": 0,
        "meta_mean_motion_dot": -1.1e-07,
        "meta_mean_motion_ddot": 0,
        "tle_line1": "1 40425U 15010B   25338.54922157 -.00000011  00000+0  00000+0 0  9999",
        "tle_line2": "2 40425   0.0149 139.4558 0000403 272.1995 104.8079  1.00275299 39442"
      },
      "geometry": {
        "type": "Point",
        "coordinates": [
          -76.8644923652134,
          0.0073599948835604435
        ]
      }
    },
    {
      "type": "Feature",
      "properties": {
        "norad_id": 40875,
        "name": "EUTELSAT 8 WEST B",
        "group": "eutelsat",
        "lat": 0.06450378166832613,
        "lon": 30.054763360590353,
        "alt_km": 35798.34204825315,
        "timestamp": "2025-12-04T21:36:15.545891+00:00",
        "meta_object_name": "EUTELSAT 8 WEST B",
        "meta_object_id": "2015-039B",
        "meta_epoch": "2025-12-04T10:15:43.581600",
        "meta_mean_motion": 1.00271635,
        "meta_eccentricity": 0.00041268,
        "meta_inclination": 0.0652,
        "meta_ra_of_asc_node": 349.5368,
        "meta_arg_of_pericenter": 266.1668,
        "meta_mean_anomaly": 323.7381,
        "meta_ephemeris_type": 0,
        "meta_classification_type": "U",
        "meta_norad_cat_id": 40875,
        "meta_element_set_no": 999,
        "meta_rev_at_epoch": 3770,
        "meta_bstar": 0,
        "meta_mean_motion_dot": -5e-07,
        "meta_mean_motion_ddot": 0,
        "tle_line1": "1 40875U 15039B   25338.42758775 -.00000050  00000+0  00000+0 0  9992",
        "tle_line2": "2 40875   0.0652 349.5368 0004126 266.1668 323.7381  1.00271635 37704"
      },
      "geometry": {
        "type": "Point",
        "coordinates": [
          30.054763360590353,
          0.06450378166832613
        ]
      }
    },
    {
      "type": "Feature",
      "properties": {
        "norad_id": 41310,
        "name": "EUTELSAT 9B",
        "group": "eutelsat",
        "lat": -0.0021843528821570927,
        "lon": 47.0351535145199,
        "alt_km": 35802.536043770815,
        "timestamp": "2025-12-04T21:36:15.545902+00:00",
        "meta_object_name": "EUTELSAT 9B",
        "meta_object_id": "2016-005A",
        "meta_epoch": "2025-12-04T13:46:11.860896",
        "meta_mean_motion": 1.00271663,
        "meta_eccentricity": 0.00049692,
        "meta_inclination": 0.0689,
        "meta_ra_of_asc_node": 75.4644,
        "meta_arg_of_pericenter": 190.3194,
        "meta_mean_anomaly": 23.398,
        "meta_ephemeris_type": 0,
        "meta_classification_type": "U",
        "meta_norad_cat_id": 41310,
        "meta_element_set_no": 999,
        "meta_rev_at_epoch": 3616,
        "meta_bstar": 0,
        "meta_mean_motion_dot": 7.6e-07,
        "meta_mean_motion_ddot": 0,
        "tle_line1": "1 41310U 16005A   25338.57374839  .00000076  00000+0  00000+0 0  9999",
        "tle_line2": "2 41310   0.0689  75.4644 0004969 190.3194  23.3980  1.00271663 36166"
      },
      "geometry": {
        "type": "Point",
        "coordinates": [
          47.0351535145199,
          -0.0021843528821570927
        ]
      }
    },
    {
      "type": "Feature",
      "properties": {
        "norad_id": 41382,
        "name": "EUTELSAT 65 WEST A",
        "group": "eutelsat",
        "lat": -0.012313626137776257,
        "lon": -27.161401609405093,
        "alt_km": 35782.72215140781,
        "timestamp": "2025-12-04T21:36:15.545914+00:00",
        "meta_object_name": "EUTELSAT 65 WEST A",
        "meta_object_id": "2016-014A",
        "meta_epoch": "2025-12-04T13:24:58.893408",
        "meta_mean_motion": 1.00270224,
        "meta_eccentricity": 0.00028319,
        "meta_inclination": 0.0497,
        "meta_ra_of_asc_node": 348.6097,
        "meta_arg_of_pericenter": 272.9646,
        "meta_mean_anomaly": 308.0994,
        "meta_ephemeris_type": 0,
        "meta_classification_type": "U",
        "meta_norad_cat_id": 41382,
        "meta_element_set_no": 999,
        "meta_rev_at_epoch": 3558,
        "meta_bstar": 0,
        "meta_mean_motion_dot": -2.62e-06,
        "meta_mean_motion_ddot": 0,
        "tle_line1": "1 41382U 16014A   25338.55901497 -.00000262  00000+0  00000+0 0  9990",
        "tle_line2": "2 41382   0.0497 348.6097 0002831 272.9646 308.0994  1.00270224 35589"
      },
      "geometry": {
        "type": "Point",
        "coordinates": [
          -27.161401609405093,
          -0.012313626137776257
        ]
      }
    },
    {
      "type": "Feature",
      "properties": {
        "norad_id": 41589,
        "name": "EUTELSAT 117 WEST B",
        "group": "eutelsat",
        "lat": 0.014039343075450048,
        "lon": -78.99354104064206,
        "alt_km": 35787.55627958742,
        "timestamp": "2025-12-04T21:36:15.545925+00:00",
        "meta_object_name": "EUTELSAT 117 WEST B",
        "meta_object_id": "2016-038B",
        "meta_epoch": "2025-12-04T10:48:15.330816",
        "meta_mean_motion": 1.00269296,
        "meta_eccentricity": 2.095e-05,
        "meta_inclination": 0.0071,
        "meta_ra_of_asc_node": 152.5773,
        "meta_arg_of_pericenter": 282.2107,
        "meta_mean_anomaly": 43.7985,
        "meta_ephemeris_type": 0,
        "meta_classification_type": "U",
        "meta_norad_cat_id": 41589,
        "meta_element_set_no": 999,
        "meta_rev_at_epoch": 3471,
        "meta_bstar": 0,
        "meta_mean_motion_dot": 4e-08,
        "meta_mean_motion_ddot": 0,
        "tle_line1": "1 41589U 16038B   25338.45017744  .00000004  00000+0  00000+0 0  9990",
        "tle_line2": "2 41589   0.0071 152.5773 0000209 282.2107  43.7985  1.00269296 34716"
      },
      "geometry": {
        "type": "Point",
        "coordinates": [
          -78.99354104064206,
          0.014039343075450048
        ]
      }
    },
    {
      "type": "Feature",
      "properties": {
        "norad_id": 42741,
        "name": "EUTELSAT 172B",
        "group": "eutelsat",
        "lat": 0.0024313215786048573,
        "lon": -149.98966709107654,
        "alt_km": 35785.513299916776,
        "timestamp": "2025-12-04T21:36:15.545937+00:00",
        "meta_object_name": "EUTELSAT 172B",
        "meta_object_id": "2017-029B",
        "meta_epoch": "2025-12-04T12:50:38.628384",
        "meta_mean_motion": 1.0027119,
        "meta_eccentricity": 1.711e-05,
        "meta_inclination": 0.0081,
        "meta_ra_of_asc_node": 80.5787,
        "meta_arg_of_pericenter": 128.2888,
        "meta_mean_anomaly": 229.3994,
        "meta_ephemeris_type": 0,
        "meta_classification_type": "U",
        "meta_norad_cat_id": 42741,
        "meta_element_set_no": 999,
        "meta_rev_at_epoch": 3177,
        "meta_bstar": 0,
        "meta_mean_motion_dot": 9e-08,
        "meta_mean_motion_ddot": 0,
        "tle_line1": "1 42741U 17029B   25338.53516931  .00000009  00000+0  00000+0 0  9998",
        "tle_line2": "2 42741   0.0081  80.5787 0000171 128.2888 229.3994  1.00271190 31777"
      },
      "geometry": {
        "type": "Point",
        "coordinates": [
          -149.98966709107654,
          0.0024313215786048573
        ]
      }
    }
  ]
}